[{"OBJECT_NAME":"STARLINK-31366","OBJECT_ID":"2024-064F","EPOCH":"2026-03-09T00:33:14.520672","MEAN_MOTION":15.27585402,"ECCENTRICITY":1.693e-5,"INCLINATION":42.9984,"RA_OF_ASC_NODE":59.9515,"ARG_OF_PERICENTER":94.417,"MEAN_ANOMALY":265.67,"EPHEMERIS_TYPE":0,"CLASSIFICATION_TYPE":"U","NORAD_CAT_ID":59403,"ELEMENT_SET_NO":999,"REV_AT_EPOCH":10912,"BSTAR":-0.00012422092,"MEAN_MOTION_DOT":-3.679e-5,"MEAN_MOTION_DDOT":0},{"OBJECT_NAME":"FLOCK 4G-29","OBJECT_ID":"2025-009AK","EPOCH":"2026-03-09T19:33:04.927968","MEAN_MOTION":15.27382318,"ECCENTRICITY":0.00013664,"INCLINATION":97.4058,"RA_OF_ASC_NODE":151.3683,"ARG_OF_PERICENTER":288.0502,"MEAN_ANOMALY":72.0588,"EPHEMERIS_TYPE":0,"CLASSIFICATION_TYPE":"U","NORAD_CAT_ID":62642,"ELEMENT_SET_NO":999,"REV_AT_EPOCH":6372,"BSTAR":0.0004183135,"MEAN_MOTION_DOT":0.00011147,"MEAN_MOTION_DDOT":0}]
